OBJECT_NAME,OBJECT_ID,EPOCH,MEAN_MOTION,ECCENTRICITY,INCLINATION,RA_OF_ASC_NODE,ARG_OF_PERICENTER,MEAN_ANOMALY,EPHEMERIS_TYPE,CLASSIFICATION_TYPE,NORAD_CAT_ID,ELEMENT_SET_NO,REV_AT_EPOCH,BSTAR,MEAN_MOTION_DOT,MEAN_MOTION_DDOT
ONEWEB-0721,2023-068R,2026-06-09T06:30:43.639488,13.22469143,.0001928,86.6765,88.0424,78.2189,281.9161,0,U,56725,999,15689,.14636909E-3,.75E-6,0
ONEWEB-0015,2024-188A,2026-06-09T01:39:57.551040,13.11417659,.00023255,87.8893,22.7090,77.2603,282.8785,0,U,61594,999,8339,.18122583E-2,.655E-5,0
ONEWEB-0687,2024-188B,2026-06-09T02:32:04.251264,13.17647912,.00023323,87.9133,7.4850,90.3603,269.7796,0,U,61595,999,8483,.65612068E-4,.38E-6,0
ONEWEB-0688,2024-188C,2026-06-09T06:52:04.985184,13.17648206,.00029453,87.9134,7.4488,72.0239,288.1213,0,U,61596,999,8485,-.59152231E-4,-.1E-6,0
ONEWEB-0689,2024-188D,2026-06-09T02:28:46.117920,13.11417519,.00019869,87.8909,22.6594,93.2667,266.8689,0,U,61597,999,8339,-.13788653E-2,-.476E-5,0
ONEWEB-0690,2024-188E,2026-06-09T02:43:24.970080,13.11419492,.00014356,87.8902,22.6698,65.3493,294.7784,0,U,61598,999,8357,-.12390643E-2,-.426E-5,0
ONEWEB-0691,2024-188F,2026-06-09T02:36:06.305184,13.11416656,.00022073,87.8912,22.5789,81.5737,278.5641,0,U,61599,999,8342,-.14935422E-2,-.517E-5,0
ONEWEB-0692,2024-188G,2026-06-09T01:15:32.029920,13.11419807,.00015639,87.8893,22.7044,110.4729,249.6567,0,U,61600,999,8340,.50299861E-3,.191E-5,0
ONEWEB-0693,2024-188H,2026-06-09T01:41:02.329440,13.17647378,.00016022,87.9130,7.5123,61.1091,299.0201,0,U,61601,999,8481,-.3390071E-5,.12E-6,0
ONEWEB-0695,2024-188J,2026-06-09T04:21:04.695840,13.11415570,.00018792,87.8894,22.6705,101.4315,258.7024,0,U,61602,999,8341,-.11868742E-2,-.408E-5,0
ONEWEB-0697,2024-188K,2026-06-09T01:27:45.055296,13.11418816,.00014584,87.8894,22.6848,108.2523,251.8764,0,U,61603,999,8338,.13567096E-2,.494E-5,0
ONEWEB-0698,2024-188L,2026-06-09T02:45:51.198624,13.11417980,.00006376,87.8892,22.6884,92.1385,267.9815,0,U,61604,999,8341,-.1549056E-2,-.536E-5,0
ONEWEB-0699,2024-188M,2026-06-09T04:45:05.665536,13.10370608,.00013894,87.8836,37.8572,100.7534,259.3750,0,U,61605,999,8226,.12730532E-2,.457E-5,0
ONEWEB-0700,2024-188N,2026-06-09T04:47:28.857984,13.10370507,.00017625,87.8856,37.7646,104.5097,255.6226,0,U,61606,999,8225,.11317139E-2,.408E-5,0
ONEWEB-0701,2024-188P,2026-06-09T05:11:21.643008,13.10370206,.00013321,87.8841,37.8530,108.2265,251.9007,0,U,61607,999,8226,-.11196469E-2,-.378E-5,0
ONEWEB-0702,2024-188Q,2026-06-09T02:01:56.187840,13.11415992,.00017082,87.8911,22.5983,118.4972,241.6328,0,U,61608,999,8342,.43799516E-3,.168E-5,0
ONEWEB-0704,2024-188R,2026-06-09T04:54:38.952864,13.10370089,.00019046,87.8850,37.8438,116.3514,243.7810,0,U,61609,999,8224,.32742287E-3,.127E-5,0
ONEWEB-0705,2024-188S,2026-06-09T05:01:49.601568,13.10369414,.00024979,87.8846,37.8487,103.8839,256.2567,0,U,61610,999,7441,.14407041E-2,.516E-5,0
ONEWEB-0706,2024-188T,2026-06-09T04:40:19.019712,13.10371363,.00018864,87.8842,37.8571,101.1909,258.9430,0,U,61611,999,8233,.15883044E-2,.567E-5,0
ONEWEB-0707,2024-188U,2026-06-09T04:49:52.205952,13.10370092,.00018181,87.8846,37.8493,100.9546,259.1786,0,U,61612,999,8227,.82106085E-3,.299E-5,0
ONEWEB-0708,2024-188V,2026-06-09T05:16:08.348448,13.10370838,.00022755,87.8839,37.8648,87.0810,273.0578,0,U,61613,999,8225,-.12198174E-2,-.413E-5,0
