ONEWEB-0721             
1 56725U 23068R   26160.27133842  .00000075  00000+0  14637-3 0  9994
2 56725  86.6765  88.0424 0001928  78.2189 281.9161 13.22469143156898
ONEWEB-0015             
1 61594U 24188A   26160.06941610  .00000655  00000+0  18123-2 0  9992
2 61594  87.8893  22.7090 0002325  77.2603 282.8785 13.11417659 83398
ONEWEB-0687             
1 61595U 24188B   26160.10560476  .00000038  00000+0  65612-4 0  9997
2 61595  87.9133   7.4850 0002332  90.3603 269.7796 13.17647912 84834
ONEWEB-0688             
1 61596U 24188C   26160.28616881 -.00000010  00000+0 -59152-4 0  9993
2 61596  87.9134   7.4488 0002945  72.0239 288.1213 13.17648206 84853
ONEWEB-0689             
1 61597U 24188D   26160.10331155 -.00000476  00000+0 -13789-2 0  9993
2 61597  87.8909  22.6594 0001986  93.2667 266.8689 13.11417519 83397
ONEWEB-0690             
1 61598U 24188E   26160.11348345 -.00000426  00000+0 -12391-2 0  9997
2 61598  87.8902  22.6698 0001435  65.3493 294.7784 13.11419492 83570
ONEWEB-0691             
1 61599U 24188F   26160.10840631 -.00000517  00000+0 -14935-2 0  9999
2 61599  87.8912  22.5789 0002207  81.5737 278.5641 13.11416656 83426
ONEWEB-0692             
1 61600U 24188G   26160.05245405  .00000191  00000+0  50300-3 0  9997
2 61600  87.8893  22.7044 0001563 110.4729 249.6567 13.11419807 83405
ONEWEB-0693             
1 61601U 24188H   26160.07016585  .00000012  00000+0 -33901-5 0  9998
2 61601  87.9130   7.5123 0001602  61.1091 299.0201 13.17647378 84810
ONEWEB-0695             
1 61602U 24188J   26160.18130435 -.00000408  00000+0 -11869-2 0  9998
2 61602  87.8894  22.6705 0001879 101.4315 258.7024 13.11415570 83415
ONEWEB-0697             
1 61603U 24188K   26160.06093814  .00000494  00000+0  13567-2 0  9995
2 61603  87.8894  22.6848 0001458 108.2523 251.8764 13.11418816 83380
ONEWEB-0698             
1 61604U 24188L   26160.11517591 -.00000536  00000+0 -15491-2 0  9992
2 61604  87.8892  22.6884 0000637  92.1385 267.9815 13.11417980 83414
ONEWEB-0699             
1 61605U 24188M   26160.19798224  .00000457  00000+0  12731-2 0  9999
2 61605  87.8836  37.8572 0001389 100.7534 259.3750 13.10370608 82261
ONEWEB-0700             
1 61606U 24188N   26160.19963956  .00000408  00000+0  11317-2 0  9991
2 61606  87.8856  37.7646 0001762 104.5097 255.6226 13.10370507 82250
ONEWEB-0701             
1 61607U 24188P   26160.21622272 -.00000378  00000+0 -11196-2 0  9991
2 61607  87.8841  37.8530 0001332 108.2265 251.9007 13.10370206 82262
ONEWEB-0702             
1 61608U 24188Q   26160.08467810  .00000168  00000+0  43800-3 0  9995
2 61608  87.8911  22.5983 0001708 118.4972 241.6328 13.11415992 83423
ONEWEB-0704             
1 61609U 24188R   26160.20461751  .00000127  00000+0  32742-3 0  9996
2 61609  87.8850  37.8438 0001904 116.3514 243.7810 13.10370089 82241
ONEWEB-0705             
1 61610U 24188S   26160.20960187  .00000516  00000+0  14407-2 0  9994
2 61610  87.8846  37.8487 0002497 103.8839 256.2567 13.10369414 74419
ONEWEB-0706             
1 61611U 24188T   26160.19466458  .00000567  00000+0  15883-2 0  9990
2 61611  87.8842  37.8571 0001886 101.1909 258.9430 13.10371363 82334
ONEWEB-0707             
1 61612U 24188U   26160.20129868  .00000299  00000+0  82106-3 0  9999
2 61612  87.8846  37.8493 0001818 100.9546 259.1786 13.10370092 82279
ONEWEB-0708             
1 61613U 24188V   26160.21954107 -.00000413  00000+0 -12198-2 0  9996
2 61613  87.8839  37.8648 0002275  87.0810 273.0578 13.10370838 82251
